NORAD_CAT_ID,OBJECT_NAME,OBJECT_TYPE,EPOCH,MEAN_MOTION,ECCENTRICITY,INCLINATION,RA_OF_ASC_NODE,ARG_OF_PERICENTER,MEAN_ANOMALY,BSTAR,MEAN_MOTION_DOT,MEAN_MOTION_DDOT,TLE_LINE0,TLE_LINE1,TLE_LINE2,SEMIMAJOR_AXIS,PERIOD,APOGEE,PERIGEE,DECAYED
49444.0,STARLINK-3126,PAYLOAD,2023-11-05 15:42:50,15.08866225,0.0001472,53.2168,87.5347,84.634,275.482,0.00078378,0.00012217,0.0,0 STARLINK-3126,1 49444U 21104AN  23309.65475253  .00012217  00000-0  78378-3 0  9996,2 49444  53.2168  87.5347 0001472  84.6340 275.4820 15.08866225110907,6917.8,95.436,540.684,538.647,0.0
49444.0,STARLINK-3126,PAYLOAD,2023-11-06 13:58:15,15.08797376,0.0002352,53.2165,83.3715,13.2631,346.8423,-0.0010256,-0.00016555,0.0,0 STARLINK-3126,1 49444U 21104AN  23310.58212869 -.00016555  00000-0 -10256-2 0  9993,2 49444  53.2165  83.3715 0002352  13.2631 346.8423 15.08797376109973,6918.011,95.44,541.503,538.249,0.0
49444.0,STARLINK-3126,PAYLOAD,2023-11-06 15:33:38,15.08800886,0.000133,53.2163,83.0739,78.3554,281.7587,-0.0014483,-0.00023239,0.0,0 STARLINK-3126,1 49444U 21104AN  23310.64835948 -.00023239  00000-0 -14483-2 0  9992,2 49444  53.2163  83.0739 0001330  78.3554 281.7587 15.08800886111056,6918.0,95.44,540.785,538.945,0.0
49444.0,STARLINK-3126,PAYLOAD,2023-11-07 12:13:41,15.08804459,0.0001284,53.2166,79.2086,65.8806,294.232,0.0019893,0.00031483,0.0,0 STARLINK-3126,1 49444U 21104AN  23311.50950927  .00031483  00000-0  19893-2 0  9991,2 49444  53.2166  79.2086 0001284  65.8806 294.2320 15.08804459111188,6917.989,95.44,540.742,538.966,0.0
49444.0,STARLINK-3126,PAYLOAD,2023-11-07 13:49:04,15.0880766,0.0001334,53.2172,78.9105,71.8132,288.3005,0.001859,0.00029396,0.0,0 STARLINK-3126,1 49444U 21104AN  23311.57575056  .00029396  00000-0  18590-2 0  9997,2 49444  53.2172  78.9105 0001334  71.8132 288.3005 15.08807660110122,6917.979,95.44,540.767,538.921,0.0
49444.0,STARLINK-3126,PAYLOAD,2023-11-08 12:04:28,15.08876343,0.0001371,53.2177,74.7478,66.5009,293.6127,0.0020662,0.00032782,0.0,0 STARLINK-3126,1 49444U 21104AN  23312.50310628  .00032782  00000-0  20662-2 0  9999,2 49444  53.2177  74.7478 0001371  66.5009 293.6127 15.08876343111331,6917.769,95.435,540.583,538.686,0.0
49444.0,STARLINK-3126,PAYLOAD,2023-11-08 13:39:51,15.08880908,0.000139,53.2177,74.4507,66.9903,293.1235,0.0020719,0.00032877,0.0,0 STARLINK-3126,1 49444U 21104AN  23312.56934448  .00032877  00000-0  20719-2 0  9995,2 49444  53.2177  74.4507 0001390  66.9903 293.1235 15.08880908110278,6917.755,95.435,540.582,538.659,0.0
49444.0,STARLINK-3126,PAYLOAD,2023-11-08 15:15:14,15.08885595,0.0001401,53.2179,74.1536,66.9687,293.1453,0.0020827,0.00033055,0.0,0 STARLINK-3126,1 49444U 21104AN  23312.63558250  .00033055  00000-0  20827-2 0  9995,2 49444  53.2179  74.1536 0001401  66.9687 293.1453 15.08885595110281,6917.741,95.435,540.575,538.637,0.0
49444.0,STARLINK-3126,PAYLOAD,2023-11-09 00:47:33,15.08856454,0.0001603,53.2178,72.3691,67.2642,292.8519,0.00043872,6.704e-05,0.0,0 STARLINK-3126,1 49444U 21104AN  23313.03302370  .00006704  00000-0  43872-3 0  9997,2 49444  53.2178  72.3691 0001603  67.2642 292.8519 15.08856454111418,6917.83,95.437,540.804,538.586,0.0
49444.0,STARLINK-3126,PAYLOAD,2023-11-09 11:55:15,15.08843477,0.0001529,53.2181,70.2884,94.8141,265.3026,0.0019976,0.0003165,0.0,0 STARLINK-3126,1 49444U 21104AN  23313.49671087  .00031650  00000-0  19976-2 0  9996,2 49444  53.2181  70.2884 0001529  94.8141 265.3026 15.08843477111486,6917.87,95.437,540.793,538.677,0.0
49444.0,STARLINK-3126,PAYLOAD,2023-11-09 13:30:38,15.08843149,0.0001248,53.2179,69.9915,89.7735,270.34,0.0023286,0.00036969,0.0,0 STARLINK-3126,1 49444U 21104AN  23313.56295099  .00036969  00000-0  23286-2 0  9996,2 49444  53.2179  69.9915 0001248  89.7735 270.3400 15.08843149110424,6917.871,95.437,540.599,538.872,0.0
49444.0,STARLINK-3126,PAYLOAD,2023-11-09 15:06:02,15.08847005,0.0001295,53.2178,69.693,90.5766,269.5374,0.0026632,0.0004236,0.0,0 STARLINK-3126,1 49444U 21104AN  23313.62919129  .00042360  00000-0  26632-2 0  9990,2 49444  53.2178  69.6930 0001295  90.5766 269.5374 15.08847005110439,6917.859,95.437,540.62,538.828,0.0
49444.0,STARLINK-3126,PAYLOAD,2023-11-10 00:38:20,15.08861624,0.0001431,53.2179,67.9102,92.1075,268.0081,0.0013,0.00020474,0.0,0 STARLINK-3126,1 49444U 21104AN  23314.02662921  .00020474  00000-0  13000-2 0  9997,2 49444  53.2179  67.9102 0001431  92.1075 268.0081 15.08861624111562,6917.814,95.436,540.669,538.689,0.0
49444.0,STARLINK-3126,PAYLOAD,2023-11-10 11:46:02,15.08863926,0.0001404,53.2184,65.8282,97.7199,262.3953,0.00077593,0.00012091,0.0,0 STARLINK-3126,1 49444U 21104AN  23314.49030262  .00012091  00000-0  77593-3 0  9999,2 49444  53.2184  65.8282 0001404  97.7199 262.3953 15.08863926111632,6917.807,95.436,540.644,538.701,0.0
49444.0,STARLINK-3126,PAYLOAD,2023-11-10 13:21:25,15.08869148,0.0001516,53.2181,65.5314,96.7532,263.3632,0.00076333,0.00011891,0.0,0 STARLINK-3126,1 49444U 21104AN  23314.55654061  .00011891  00000-0  76333-3 0  9993,2 49444  53.2181  65.5314 0001516  96.7532 263.3632 15.08869148110575,6917.791,95.436,540.705,538.608,0.0
49444.0,STARLINK-3126,PAYLOAD,2023-11-10 14:56:48,15.08872444,0.0001513,53.2181,65.234,94.9994,265.1171,0.00079465,0.00012393,0.0,0 STARLINK-3126,1 49444U 21104AN  23314.62277888  .00012393  00000-0  79465-3 0  9996,2 49444  53.2181  65.2340 0001513  94.9994 265.1171 15.08872444110582,6917.781,95.436,540.693,538.6,0.0
49444.0,STARLINK-3126,PAYLOAD,2023-11-11 00:29:06,15.0886484,0.0001453,53.218,63.4464,94.5687,265.5471,0.00038034,5.774e-05,0.0,0 STARLINK-3126,1 49444U 21104AN  23315.02021415  .00005774  00000-0  38034-3 0  9996,2 49444  53.2180  63.4464 0001453  94.5687 265.5471 15.08864840111710,6917.804,95.436,540.675,538.664,0.0
49444.0,STARLINK-3126,PAYLOAD,2023-11-11 11:36:48,15.08848679,0.000146,53.2169,61.3677,90.107,270.0089,0.00015436,2.17e-05,0.0,0 STARLINK-3126,1 49444U 21104AN  23315.48389641  .00002170  00000-0  15436-3 0  9992,2 49444  53.2169  61.3677 0001460  90.1070 270.0089 15.08848679111781,6917.854,95.437,540.729,538.709,0.0
49444.0,STARLINK-3126,PAYLOAD,2023-11-11 13:12:11,15.08854267,0.0001452,53.2168,61.0704,90.1953,269.9206,6.9643e-05,8.21e-06,0.0,0 STARLINK-3126,1 49444U 21104AN  23315.55013361  .00000821  00000-0  69643-4 0  9994,2 49444  53.2168  61.0704 0001452  90.1953 269.9206 15.08854267110720,6917.837,95.437,540.706,538.697,0.0
49444.0,STARLINK-3126,PAYLOAD,2023-11-11 14:47:34,15.08856933,0.0001483,53.2171,60.7726,91.1877,268.9285,0.00010651,1.408e-05,0.0,0 STARLINK-3126,1 49444U 21104AN  23315.61637170  .00001408  00000-0  10651-3 0  9997,2 49444  53.2171  60.7726 0001483  91.1877 268.9285 15.08856933110733,6917.829,95.436,540.72,538.668,0.0
49444.0,STARLINK-3126,PAYLOAD,2023-11-12 11:27:35,15.0884435,0.0001511,53.2174,56.9065,88.1744,271.9421,-7.2855e-05,-1.447e-05,0.0,0 STARLINK-3126,1 49444U 21104AN  23316.47749352 -.00001447  00000-0 -72855-4 0  9998,2 49444  53.2174  56.9065 0001511  88.1744 271.9421 15.08844350111939,6917.867,95.437,540.777,538.687,0.0
49444.0,STARLINK-3126,PAYLOAD,2023-11-12 13:02:58,15.08851587,0.0001497,53.2182,56.6092,85.6031,274.5132,-6.3672e-05,-1.302e-05,0.0,0 STARLINK-3126,1 49444U 21104AN  23316.54373436 -.00001302  00000-0 -63672-4 0  9999,2 49444  53.2182  56.6092 0001497  85.6031 274.5132 15.08851587110879,6917.845,95.437,540.746,538.674,0.0
49444.0,STARLINK-3126,PAYLOAD,2023-11-12 16:13:44,15.08857819,0.0001524,53.2191,56.0125,84.7504,275.3662,-4.0734e-07,-2.95e-06,0.0,0 STARLINK-3126,1 49444U 21104AN  23316.67620781 -.00000295  00000-0 -40734-6 0  9997,2 49444  53.2191  56.0125 0001524  84.7504 275.3662 15.08857819111968,6917.826,95.436,540.745,538.637,0.0
49444.0,STARLINK-3126,PAYLOAD,2023-11-13 12:53:44,15.08858372,0.0001511,53.2185,52.149,86.9951,273.1214,0.00010241,1.343e-05,0.0,0 STARLINK-3126,1 49444U 21104AN  23317.53731844  .00001343  00000-0  10241-3 0  9996,2 49444  53.2185  52.1490 0001511  86.9951 273.1214 15.08858372111020,6917.824,95.436,540.735,538.644,0.0
49444.0,STARLINK-3126,PAYLOAD,2023-11-14 12:44:32,15.08839324,0.000138,53.2186,47.6885,88.8049,271.3101,-2.422e-05,-6.73e-06,0.0,0 STARLINK-3126,1 49444U 21104AN  23318.53093268 -.00000673  00000-0 -24220-4 0  9998,2 49444  53.2186  47.6885 0001380  88.8049 271.3101 15.08839324112247,6917.882,95.438,540.702,538.793,0.0
49444.0,STARLINK-3126,PAYLOAD,2023-11-14 15:55:18,15.08841272,0.0001432,53.2185,47.093,89.8351,270.2805,-5.8372e-06,-3.81e-06,0.0,0 STARLINK-3126,1 49444U 21104AN  23318.66341082 -.00000381  00000-0 -58372-5 0  9994,2 49444  53.2185  47.0930 0001432  89.8351 270.2805 15.08841272111193,6917.877,95.437,540.732,538.751,0.0
49444.0,STARLINK-3126,PAYLOAD,2023-11-15 12:35:19,15.08847157,0.0001483,53.2194,43.2284,90.6514,269.4648,-1.6213e-05,-5.46e-06,0.0,0 STARLINK-3126,1 49444U 21104AN  23319.52452637 -.00000546  00000-0 -16213-4 0  9999,2 49444  53.2194  43.2284 0001483  90.6514 269.4648 15.08847157111328,6917.859,95.437,540.749,538.698,0.0
49444.0,STARLINK-3126,PAYLOAD,2023-11-15 22:07:38,15.08844004,0.0001581,53.2195,41.4435,83.227,276.8902,-4.5007e-05,-1.004e-05,0.0,0 STARLINK-3126,1 49444U 21104AN  23319.92196851 -.00001004  00000-0 -45007-4 0  9999,2 49444  53.2195  41.4435 0001581  83.2270 276.8902 15.08844004111382,6917.868,95.437,540.827,538.639,0.0
49444.0,STARLINK-3126,PAYLOAD,2023-11-16 06:04:34,15.08832001,0.0001536,53.2192,39.9586,100.0515,260.065,7.0666e-05,8.37e-06,0.0,0 STARLINK-3126,1 49444U 21104AN  23320.25317735  .00000837  00000-0  70666-4 0  9993,2 49444  53.2192  39.9586 0001536 100.0515 260.0650 15.08832001112502,6917.905,95.438,540.832,538.707,0.0
49444.0,STARLINK-3126,PAYLOAD,2023-11-16 09:15:20,15.08832886,0.0001543,53.219,39.3641,100.3109,259.8057,7.6765e-05,9.34e-06,0.0,0 STARLINK-3126,1 49444U 21104AN  23320.38565591  .00000934  00000-0  76765-4 0  9996,2 49444  53.2190  39.3641 0001543 100.3109 259.8057 15.08832886111457,6917.902,95.438,540.835,538.7,0.0
